     2.100          NAVIGATION                              RINEX VERSION / TYPE
fic2rin                                 03/03/2012 00:30:04 PGM / RUN BY / DATE
                                                            END OF HEADER
28 12  3  3  0  0  0.0  .118525233120D-03  .397903932026D-11  .000000000000D+00
     .730000000000D+02 -.664062500000D+02  .429910764652D-08  .100098677397D-01
    -.340305268764D-05  .178887218935D-01  .565871596336D-05  .515370927238D+04
     .518400000000D+06 -.234693288803D-06 -.164946384681D+01  .126659870148D-06
     .977662514288D+00  .282281250000D+03 -.183639106293D+01 -.835606234925D-08
    -.141077305007D-09  .100000000000D+01  .167700000000D+04  .000000000000D+00
     .240000000000D+01  .000000000000D+00 -.107102096081D-07  .730000000000D+02
     .511206000000D+06  .400000000000D+01
29 12  3  3  0  0  0.0  .290047843009D-03  .363797880709D-11  .000000000000D+00
     .270000000000D+02 -.427187500000D+02  .431446542909D-08  .221480184570D+01
    -.230036675930D-05  .227508181706D-02  .978633761406D-05  .515362793159D+04
     .518400000000D+06  .000000000000D+00 -.606414864550D+00  .745058059692D-07
     .963189649218D+00  .191375000000D+03 -.117995314832D+01 -.782889753358D-08
     .190007914592D-09  .100000000000D+01  .167700000000D+04  .000000000000D+00
     .240000000000D+01  .000000000000D+00 -.931322574615D-08  .270000000000D+02
     .511206000000D+06  .400000000000D+01
30 12  3  3  0  0  0.0 -.669476576149D-04 -.163709046319D-10  .000000000000D+00
     .770000000000D+02 -.752812500000D+02  .477841332581D-08 -.719621330363D+00
    -.374391674995D-05  .108908341499D-01  .476092100143D-05  .515362387276D+04
     .518400000000D+06 -.126659870148D-06 -.179765338864D+01  .521540641785D-07
     .958579682749D+00  .285187500000D+03  .155369262300D+01 -.854892752572D-08
    -.129648257513D-09  .100000000000D+01  .167700000000D+04  .000000000000D+00
     .136500000000D+02  .000000000000D+00 -.419095158577D-08  .770000000000D+02
     .511206000000D+06  .400000000000D+01
31 12  3  3  0  0  0.0  .214922707528D-03  .443378667114D-11  .000000000000D+00
     .880000000000D+02  .435937500000D+02  .428482133715D-08  .287172053224D+01
     .244751572609D-05  .799771503080D-02  .407360494137D-05  .515360219002D+04
     .518400000000D+06  .577419996262D-07 -.272785465650D+01  .145286321640D-06
     .980966906832D+00  .312250000000D+03 -.892777264739D+00 -.804497796277D-08
     .746459664470D-10  .100000000000D+01  .167700000000D+04  .000000000000D+00
     .240000000000D+01  .000000000000D+00 -.130385160446D-07  .880000000000D+02
     .511206000000D+06  .400000000000D+01
32 12  3  3  0  0  0.0 -.415158458054D-03 -.511590769747D-11  .000000000000D+00
     .600000000000D+01  .134062500000D+02  .470341020163D-08 -.278959791278D+01
     .836327672005D-06  .118471219903D-01  .822171568871D-05  .515372879601D+04
     .518400000000D+06 -.819563865662D-07  .153226746797D+01  .126659870148D-06
     .952006892760D+00  .213406250000D+03 -.607947821296D+00 -.791640117846D-08
    -.294297972978D-09  .100000000000D+01  .167700000000D+04  .000000000000D+00
     .240000000000D+01  .000000000000D+00 -.279396772385D-08  .600000000000D+01
     .511206000000D+06  .400000000000D+01
 1 12  3  2 23 59 44.0  .224490184337D-03  .829913915368D-11  .000000000000D+00
     .130000000000D+02  .124375000000D+02  .463233581252D-08  .286462219917D+01
     .696629285812D-06  .562827452086D-03  .757724046707D-05  .515365160561D+04
     .518384000000D+06  .298023223877D-07  .392069198913D+00  .931322574615D-08
     .960488319782D+00  .234093750000D+03  .781032783665D+00 -.801033366255D-08
     .281440294547D-09  .100000000000D+01  .167700000000D+04  .000000000000D+00
     .240000000000D+01  .000000000000D+00  .838190317154D-08  .130000000000D+02
     .511266000000D+06  .400000000000D+01
30 12  3  2 23 59 44.0 -.669369474053D-04 -.156887836056D-10  .000000000000D+00
     .800000000000D+01 -.752812500000D+02  .477877048354D-08 -.721955100168D+00
    -.374391674995D-05  .108908365946D-01  .475905835629D-05  .515362386703D+04
     .518384000000D+06 -.126659870148D-06 -.179765324674D+01  .521540641785D-07
     .958579678360D+00  .285187500000D+03  .155369260837D+01 -.854928468345D-08
    -.129648257513D-09  .100000000000D+01  .167700000000D+04  .000000000000D+00
     .240000000000D+01  .000000000000D+00 -.419095158577D-08  .800000000000D+01
     .518166000000D+06  .400000000000D+01
